{
    "links": {
        "self": "http://www.neowsapp.com/rest/v1/neo/3825605?api_key=iIulBulltgU6a56xZRHN4H3l9WmuAYTsLGpBGhQ2"
    },
    "id": "3825605",
    "neo_reference_id": "3825605",
    "name": "(2018 NU2)",
    "designation": "2018 NU2",
    "nasa_jpl_url": "http://ssd.jpl.nasa.gov/sbdb.cgi?sstr=3825605",
    "absolute_magnitude_h": 24.4,
    "estimated_diameter": {
        "kilometers": {
            "estimated_diameter_min": 0.0350392641,
            "estimated_diameter_max": 0.0783501764
        },
        "meters": {
            "estimated_diameter_min": 35.0392641108,
            "estimated_diameter_max": 78.3501764334
        },
        "miles": {
            "estimated_diameter_min": 0.0217723826,
            "estimated_diameter_max": 0.0486845275
        },
        "feet": {
            "estimated_diameter_min": 114.9582192654,
            "estimated_diameter_max": 257.0543928497
        }
    },
    "is_potentially_hazardous_asteroid": false,
    "close_approach_data": [
        {
            "close_approach_date": "2018-07-05",
            "close_approach_date_full": "2018-Jul-05 21:08",
            "epoch_date_close_approach": 1530824880000,
            "relative_velocity": {
                "kilometers_per_second": "5.7817433691",
                "kilometers_per_hour": "20814.2761287012",
                "miles_per_hour": "12933.1817423033"
            },
            "miss_distance": {
                "astronomical": "0.1364271192",
                "lunar": "53.0701493688",
                "kilometers": "20409206.442556104",
                "miles": "12681692.8254940752"
            },
            "orbiting_body": "Earth"
        }
    ],
    "orbital_data": {
        "orbit_id": "2",
        "orbit_determination_date": "2018-07-20 06:23:35",
        "first_observation_date": "2018-07-11",
        "last_observation_date": "2018-07-19",
        "data_arc_in_days": 8,
        "observations_used": 13,
        "orbit_uncertainty": "8",
        "minimum_orbit_intersection": ".1306",
        "jupiter_tisserand_invariant": "3.166",
        "epoch_osculation": "2458311.5",
        "eccentricity": ".5614941745843998",
        "semi_major_axis": "2.608187220827454",
        "inclination": "1.771373313754899",
        "ascending_node_longitude": "43.11494268825232",
        "orbital_period": "1538.532132217155",
        "perihelion_distance": "1.143705290107363",
        "perihelion_argument": "245.3026718761505",
        "aphelion_distance": "4.072669151547545",
        "perihelion_time": "2458308.191006328708",
        "mean_anomaly": ".7742689910209711",
        "mean_motion": ".2339892631824397",
        "equinox": "J2000",
        "orbit_class": {
            "orbit_class_type": "AMO",
            "orbit_class_description": "Near-Earth asteroid orbits similar to that of 1221 Amor",
            "orbit_class_range": "1.017 AU < q (perihelion) < 1.3 AU"
        }
    },
    "is_sentry_object": false
}